[{"OBJECT_NAME":"STARLINK-3690","OBJECT_ID":"2022-025J","EPOCH":"2026-03-09T06:36:44.498592","MEAN_MOTION":15.30191903,"ECCENTRICITY":0.00013974,"INCLINATION":53.1606,"RA_OF_ASC_NODE":26.2078,"ARG_OF_PERICENTER":104.7016,"MEAN_ANOMALY":255.4139,"EPHEMERIS_TYPE":0,"CLASSIFICATION_TYPE":"U","NORAD_CAT_ID":51964,"ELEMENT_SET_NO":999,"REV_AT_EPOCH":22095,"BSTAR":9.893093e-6,"MEAN_MOTION_DOT":-6.6e-7,"MEAN_MOTION_DDOT":0},{"OBJECT_NAME":"GHGSAT-C5","OBJECT_ID":"2022-057N","EPOCH":"2026-03-09T21:50:12.501024","MEAN_MOTION":15.32921902,"ECCENTRICITY":0.00082696,"INCLINATION":97.6522,"RA_OF_ASC_NODE":212.4963,"ARG_OF_PERICENTER":109.8004,"MEAN_ANOMALY":250.413,"EPHEMERIS_TYPE":0,"CLASSIFICATION_TYPE":"U","NORAD_CAT_ID":52744,"ELEMENT_SET_NO":999,"REV_AT_EPOCH":21032,"BSTAR":0.00029214604,"MEAN_MOTION_DOT":9.218e-5,"MEAN_MOTION_DDOT":0}]
